#aV2009  1 22  0  0   .00000000      96 DD+AD WGS84 FIT  NGA
## 1515 345600.00000000   900.00000000 54853  .0000000000000
+   31     2  3  4  5  6  7  8  9 10 11 12 13 14 15 16 17 18
+         19 20 21 22 23 24 25 26 27 28 29 30 31 32  0  0  0
+          0  0  0  0  0  0  0  0  0  0  0  0  0  0  0  0  0
+          0  0  0  0  0  0  0  0  0  0  0  0  0  0  0  0  0
+          0  0  0  0  0  0  0  0  0  0  0  0  0  0  0  0  0
++         0  0  0  0  0  0  0  0  0  0  0  0  0  0  0  0  0
++         0  0  0  0  0  0  0  0  0  0  0  0  0  0  0  0  0
++         0  0  0  0  0  0  0  0  0  0  0  0  0  0  0  0  0
++         0  0  0  0  0  0  0  0  0  0  0  0  0  0  0  0  0
++         0  0  0  0  0  0  0  0  0  0  0  0  0  0  0  0  0
%c cc cc ccc ccc cccc cccc cccc cccc ccccc ccccc ccccc ccccc
%c cc cc ccc ccc cccc cccc cccc cccc ccccc ccccc ccccc ccccc
%f  0.0000000  0.000000000  0.00000000000  0.000000000000000
%f  0.0000000  0.000000000  0.00000000000  0.000000000000000
%i    0    0    0    0      0      0      0      0         0
%i    0    0    0    0      0      0      0      0         0
/*      NGA, ST. LOUIS,MO.                                  
/*   EPHEMERIS COMPUTED FROM  3 DAYS OF DATA                
/* CCCCCCCCCCCCCCCCCCCCCCCCCCCCCCCCCCCCCCCCCCCCCCCCCCCCCCCCC
/* CCCCCCCCCCCCCCCCCCCCCCCCCCCCCCCCCCCCCCCCCCCCCCCCCCCCCCCCC
*  2009  1 22 16 45   .00000000                                                 
P  2  -5179.037315 -18455.555962  18416.821242    160.438689                    
V  2  21211.074394  10397.515890  15887.542207      -.017182                    
P  3   -448.954975  18312.281547 -19419.110694    342.534171                    
V  3 -20710.799071  12758.197641  13062.562931       .052272                    
P  4  10126.090786 -12032.729856  21297.387696   -309.025393                    
V  4  23403.469602  14242.236451  -2693.070126      -.136191                    
P  5 -14476.418485 -11866.800522  18593.711014   -581.170517                    
V  5   -394.897807 -24287.533826 -15440.892078      -.521088                    
P  6  -6355.315702  18999.459823 -17239.992103     83.886514                    
V  6 -20138.178823   9945.040200  18213.523456      -.126562                    
P  7  23547.416834   4699.418048 -11488.570080     23.196661                    
V  7  11377.627318   9277.303075  27045.633850      -.002149                    
P  8  16516.707375  -5111.051163 -20362.732114   -187.425770                    
V  8  20869.065660  14693.682288  12793.469901      -.015612                    
P  9 -21181.571211 -15492.528294  -5090.521869     36.359206                    
V  9   5968.853585    800.240816 -31127.697593       .019906                    
P 10  -2217.548806 -25924.987405  -4477.626562     -9.914922                    
V 10   3238.938662  -5442.869952  31283.994580      -.006140                    
P 11  23607.180013  11839.673845  -4423.399230      9.781093                    
V 11  -6592.307777   2597.754961 -29190.842849      -.011137                    
P 12 -12101.077662 -15644.794903  17852.374682   -323.240330                    
V 12   1788.678001 -22440.668012 -18429.558090       .034320                    
P 13  23721.178744  -3575.536248  11273.307420    285.914857                    
V 13 -12279.912192   7767.055291  28020.939218       .013760                    
P 14 -19771.427997  15944.897028   7690.458269   -164.741415                    
V 14  -9383.326098   2761.283090 -30428.573706       .052091                    
P 15  -8950.756999 -12444.734628 -21658.492600   -245.946725                    
V 15  23779.653056 -13993.012045  -1738.228919      -.055266                    
P 16  -2390.176595  26238.914188   2264.479069     80.168546                    
V 16  -2680.944328  -2903.968216  31883.142903      -.027349                    
P 17  21037.987584 -15308.970015   4863.412392     44.923225                    
V 17   6805.758944   -352.736542 -31041.918973       .009729                    
P 18 -15245.552408   5705.226312 -20716.523349    -90.610881                    
V 18    135.908547 -26934.927093  -7801.385140       .036527                    
P 19  10501.107946  11687.739454 -21377.990601     33.501220                    
V 19 -24491.865820  12007.881284  -5227.372096      -.004855                    
P 20  13756.861998  12596.864637  18803.463357     92.953445                    
V 20  -1348.819534  24188.714465 -15070.736875      -.011169                    
P 21 -22340.446250  -1207.599499 -14540.237254     32.664930                    
V 21 -14650.401636 -11825.217068  22513.010259      -.017902                    
P 22 -11960.669332  18015.966310 -15226.659071    206.300200                    
V 22  -1520.912881 -19785.231363 -22044.981917      -.005153                    
P 23  19025.286937   3674.629848  18236.674049    385.601681                    
V 23 -19594.229750  12352.404032  17642.782849       .007355                    
P 24 -22925.198604 -12781.266464  -2810.371189    159.593248                    
V 24  -1288.885151  -4876.120697  31441.628593       .029778                    
P 25  24655.661679   8560.134039  -3989.624285    191.766054                    
V 25   3837.436560   4848.843664  31493.719663       .259453                    
P 26  -2137.750632 -15090.366796 -22191.527365     38.434427                    
V 26  24361.282644 -11549.148347   6153.013198       .032826                    
P 27  10798.997318 -10660.133065 -21155.922440     18.398315                    
V 27  25026.158685  13414.708622   5745.198842       .031412                    
P 28  12225.064944 -15981.565930 -16747.951054    -23.691701                    
V 28   1110.188178  22248.855907 -20255.739261       .001945                    
P 29 -23392.003286   2647.377658  12367.763368    -16.240209                    
V 29  12628.092556  -9387.339137  26142.296066       .028052                    
P 30 -15258.953174  -1946.920761  21298.571505    121.446453                    
V 30   -593.198671 -27920.394914  -2845.970180       .023956                    
P 31  -6921.393293  13429.809673  22056.102383    -48.702024                    
V 31 -23737.113612 -13809.835774   1089.857544      -.014075                    
P 32   8755.831379  20218.832876  15409.624876    301.622423                    
V 32  -3412.327832  18490.578619 -22711.449616      -.028946                    
EOF
